COMMENT,ORIGINATOR,NORAD_CAT_ID,OBJECT_NAME,OBJECT_TYPE,CLASSIFICATION_TYPE,INTLDES,EPOCH,EPOCH_MICROSECONDS,MEAN_MOTION,ECCENTRICITY,INCLINATION,RA_OF_ASC_NODE,ARG_OF_PERICENTER,MEAN_ANOMALY,EPHEMERIS_TYPE,ELEMENT_SET_NO,REV_AT_EPOCH,BSTAR,MEAN_MOTION_DOT,MEAN_MOTION_DDOT,FILE,TLE_LINE0,TLE_LINE1,TLE_LINE2,OBJECT_ID,OBJECT_NUMBER,SEMIMAJOR_AXIS,PERIOD,APOGEE,PERIGEE,DECAYED
"GENERATED VIA SPACETRACK.ORG API","18 SPCS","48890","SPACEBEE-104","PAYLOAD","U","21059M","2021-09-08 17:47:47","903424","15.1195182","0.0009809","97.5216","19.4126","4.58","355.5518","0","999","1132","0.000018027","0.00000245","0","3111252","0 SPACEBEE-104","1 48890U 21059M   21251.74152666  .00000245  00000-0  18027-4 0  9997","2 48890  97.5216  19.4126 0009809   4.5800 355.5518 15.11951820 11329","2021-059M","48890","6908.385","95.241","537.027","523.474","0"
"GENERATED VIA SPACETRACK.ORG API","18 SPCS","48890","SPACEBEE-104","PAYLOAD","U","21059M","2021-09-09 14:26:42","875232","15.11952918","0.0009732","97.5218","20.2598","1.6776","358.4485","0","999","1145","0.000022207","0.00000317","0","3111654","0 SPACEBEE-104","1 48890U 21059M   21252.60188513  .00000317  00000-0  22207-4 0  9998","2 48890  97.5218  20.2598 0009732   1.6776 358.4485 15.11952918 11457","2021-059M","48890","6908.382","95.241","536.970","523.524","0"
"GENERATED VIA SPACETRACK.ORG API","18 SPCS","48890","SPACEBEE-104","PAYLOAD","U","21059M","2021-09-09 16:02:00","949920","15.11952977","0.0009726","97.5219","20.3249","1.4601","358.6656","0","999","1146","0.000022192","0.00000316","0","3111873","0 SPACEBEE-104","1 48890U 21059M   21252.66806655  .00000316  00000-0  22192-4 0  9990","2 48890  97.5219  20.3249 0009726   1.4601 358.6656 15.11952977 11468","2021-059M","48890","6908.382","95.241","536.966","523.528","0"
"GENERATED VIA SPACETRACK.ORG API","18 SPCS","48890","SPACEBEE-104","PAYLOAD","U","21059M","2021-09-10 07:55:01","689888","15.11953647","0.0009665","97.5219","20.9765","359.2228","0.8986","0","999","1156","0.000023869","0.00000345","0","3112362","0 SPACEBEE-104","1 48890U 21059M   21253.32988067  .00000345  00000-0  23869-4 0  9996","2 48890  97.5219  20.9765 0009665 359.2228   0.8986 15.11953647 11566","2021-059M","48890","6908.380","95.241","536.922","523.568","0"
"GENERATED VIA SPACETRACK.ORG API","18 SPCS","48890","SPACEBEE-104","PAYLOAD","U","21059M","2021-09-10 07:55:01","689888","15.11953647","0.0009665","97.5219","20.9765","359.2228","0.8986","0","999","1156","0.000023869","0.00000345","0","3112526","0 SPACEBEE-104","1 48890U 21059M   21253.32988067  .00000345  00000-0  23869-4 0  9996","2 48890  97.5219  20.9765 0009665 359.2228   0.8986 15.11953647 11566","2021-059M","48890","6908.380","95.241","536.922","523.568","0"
"GENERATED VIA SPACETRACK.ORG API","18 SPCS","48890","SPACEBEE-104","PAYLOAD","U","21059M","2021-09-10 20:37:26","253696","15.11954279","0.0009604","97.522","21.4978","357.5189","2.5992","0","999","1164","0.000026149","0.00000384","0","3112758","0 SPACEBEE-104","1 48890U 21059M   21253.85933164  .00000384  00000-0  26149-4 0  9999","2 48890  97.5220  21.4978 0009604 357.5189   2.5992 15.11954279 11647","2021-059M","48890","6908.378","95.241","536.877","523.608","0"
"GENERATED VIA SPACETRACK.ORG API","18 SPCS","48890","SPACEBEE-104","PAYLOAD","U","21059M","2021-09-11 07:44:32","712576","15.11955261","0.0009549","97.522","21.954","355.9818","4.1334","0","999","1171","0.000032074","0.00000486","0","3113181","0 SPACEBEE-104","1 48890U 21059M   21254.32260084  .00000486  00000-0  32074-4 0  9993","2 48890  97.5220  21.9540 0009549 355.9818   4.1334 15.11955261 11714","2021-059M","48890","6908.375","95.241","536.836","523.643","0"
"GENERATED VIA SPACETRACK.ORG API","18 SPCS","48890","SPACEBEE-104","PAYLOAD","U","21059M","2021-09-11 14:05:44","989728","15.11955352","0.0009525","97.5221","22.2146","355.065","5.0485","0","999","1175","0.000031321","0.00000473","0","3113255","0 SPACEBEE-104","1 48890U 21059M   21254.58732627  .00000473  00000-0  31321-4 0  9998","2 48890  97.5221  22.2146 0009525 355.0650   5.0485 15.11955352 11752","2021-059M","48890","6908.374","95.241","536.820","523.659","0"
"GENERATED VIA SPACETRACK.ORG API","18 SPCS","48890","SPACEBEE-104","PAYLOAD","U","21059M","2021-09-11 14:05:44","989728","15.11955352","0.0009525","97.5221","22.2146","355.065","5.0485","0","999","1175","0.000031321","0.00000473","0","3113379","0 SPACEBEE-104","1 48890U 21059M   21254.58732627  .00000473  00000-0  31321-4 0  9998","2 48890  97.5221  22.2146 0009525 355.0650   5.0485 15.11955352 11752","2021-059M","48890","6908.374","95.241","536.820","523.659","0"
"GENERATED VIA SPACETRACK.ORG API","18 SPCS","48890","SPACEBEE-104","PAYLOAD","U","21059M","2021-09-12 07:34:03","694656","15.11956246","0.0009454","97.5221","22.9315","352.5346","7.5742","0","999","1186","0.000034215","0.00000523","0","3114003","0 SPACEBEE-104","1 48890U 21059M   21255.31532054  .00000523  00000-0  34215-4 0  9993","2 48890  97.5221  22.9315 0009454 352.5346   7.5742 15.11956246 11860","2021-059M","48890","6908.372","95.241","536.768","523.705","0"
"GENERATED VIA SPACETRACK.ORG API","18 SPCS","48890","SPACEBEE-104","PAYLOAD","U","21059M","2021-09-12 18:41:10","87008","15.11957171","0.0009395","97.5221","23.3875","351.0532","9.0529","0","999","1193","0.000038023","0.00000588","0","3114079","0 SPACEBEE-104","1 48890U 21059M   21255.77858897  .00000588  00000-0  38023-4 0  9991","2 48890  97.5221  23.3875 0009395 351.0532   9.0529 15.11957171 11937","2021-059M","48890","6908.369","95.241","536.724","523.743","0"
"GENERATED VIA SPACETRACK.ORG API","18 SPCS","48890","SPACEBEE-104","PAYLOAD","U","21059M","2021-09-12 21:51:46","189728","15.11957569","0.000938","97.5221","23.5178","350.6145","9.4908","0","999","1195","0.000040335","0.00000628","0","3114195","0 SPACEBEE-104","1 48890U 21059M   21255.91095127  .00000628  00000-0  40335-4 0  9990","2 48890  97.5221  23.5178 0009380 350.6145   9.4908 15.11957569 11952","2021-059M","48890","6908.368","95.241","536.713","523.753","0"
"GENERATED VIA SPACETRACK.ORG API","18 SPCS","48890","SPACEBEE-104","PAYLOAD","U","21059M","2021-09-13 07:23:34","516032","15.11958173","0.0009336","97.5222","23.9089","349.1523","10.9504","0","999","1201","0.000041763","0.00000652","0","3114796","0 SPACEBEE-104","1 48890U 21059M   21256.30803838  .00000652  00000-0  41763-4 0  9993","2 48890  97.5222  23.9089 0009336 349.1523  10.9504 15.11958173 12011","2021-059M","48890","6908.366","95.241","536.680","523.781","0"
"GENERATED VIA SPACETRACK.ORG API","18 SPCS","48890","SPACEBEE-104","PAYLOAD","U","21059M","2021-09-13 18:30:40","866912","15.11959092","0.0009293","97.5222","24.3649","347.5416","12.5583","0","999","1208","0.000044508","0.00000699","0","3115005","0 SPACEBEE-104","1 48890U 21059M   21256.77130633  .00000699  00000-0  44508-4 0  9991","2 48890  97.5222  24.3649 0009293 347.5416  12.5583 15.11959092 12086","2021-059M","48890","6908.363","95.241","536.648","523.808","0"
"GENERATED VIA SPACETRACK.ORG API","18 SPCS","48890","SPACEBEE-104","PAYLOAD","U","21059M","2021-09-13 20:05:58","912224","15.11959276","0.0009295","97.5222","24.4302","347.3442","12.7553","0","999","1209","0.000045261","0.00000712","0","3115082","0 SPACEBEE-104","1 48890U 21059M   21256.83748741  .00000712  00000-0  45261-4 0  9996","2 48890  97.5222  24.4302 0009295 347.3442  12.7553 15.11959276 12096","2021-059M","48890","6908.362","95.241","536.649","523.806","0"
"GENERATED VIA SPACETRACK.ORG API","18 SPCS","48890","SPACEBEE-104","PAYLOAD","U","21059M","2021-09-14 07:13:05","233728","15.11960036","0.0009251","97.5222","24.8864","345.6423","14.4543","0","999","1216","0.000045762","0.00000721","0","3115492","0 SPACEBEE-104","1 48890U 21059M   21257.30075502  .00000721  00000-0  45762-4 0  9993","2 48890  97.5222  24.8864 0009251 345.6423  14.4543 15.11960036 12167","2021-059M","48890","6908.360","95.241","536.616","523.834","0"
"GENERATED VIA SPACETRACK.ORG API","18 SPCS","48890","SPACEBEE-104","PAYLOAD","U","21059M","2021-09-14 18:20:11","540544","15.11960727","0.0009167","97.5223","25.3423","343.9869","16.107","0","999","1223","0.000045043","0.00000708","0","3115650","0 SPACEBEE-104","1 48890U 21059M   21257.76402246  .00000708  00000-0  45043-4 0  9999","2 48890  97.5223  25.3423 0009167 343.9869  16.1070 15.11960727 12235","2021-059M","48890","6908.358","95.241","536.556","523.890","0"
"GENERATED VIA SPACETRACK.ORG API","18 SPCS","48890","SPACEBEE-104","PAYLOAD","U","21059M","2021-09-15 05:27:17","835264","15.11961318","0.0009138","97.5223","25.7986","342.2529","17.8381","0","999","1230","0.000043485","0.00000682","0","3116119","0 SPACEBEE-104","1 48890U 21059M   21258.22728976  .00000682  00000-0  43485-4 0  9991","2 48890  97.5223  25.7986 0009138 342.2529  17.8381 15.11961318 12304","2021-059M","48890","6908.356","95.241","536.534","523.908","0"
"GENERATED VIA SPACETRACK.ORG API","18 SPCS","48890","SPACEBEE-104","PAYLOAD","U","21059M","2021-09-15 05:27:17","835264","15.11961318","0.0009138","97.5223","25.7986","342.2529","17.8381","0","999","1230","0.000043485","0.00000682","0","3116289","0 SPACEBEE-104","1 48890U 21059M   21258.22728976  .00000682  00000-0  43485-4 0  9991","2 48890  97.5223  25.7986 0009138 342.2529  17.8381 15.11961318 12304","2021-059M","48890","6908.356","95.241","536.534","523.908","0"
"GENERATED VIA SPACETRACK.ORG API","18 SPCS","48890","SPACEBEE-104","PAYLOAD","U","21059M","2021-09-15 21:20:18","219264","15.11962257","0.0009081","97.5224","26.4502","339.8204","20.2666","0","999","1240","0.000040998","0.00000639","0","3116597","0 SPACEBEE-104","1 48890U 21059M   21258.88909976  .00000639  00000-0  40998-4 0  9992","2 48890  97.5224  26.4502 0009081 339.8204  20.2666 15.11962257 12404","2021-059M","48890","6908.353","95.240","536.492","523.945","0"
